NORAD_CAT_ID,OBJECT_NAME,OBJECT_TYPE,EPOCH,MEAN_MOTION,ECCENTRICITY,INCLINATION,RA_OF_ASC_NODE,ARG_OF_PERICENTER,MEAN_ANOMALY,BSTAR,MEAN_MOTION_DOT,MEAN_MOTION_DDOT,TLE_LINE0,TLE_LINE1,TLE_LINE2,SEMIMAJOR_AXIS,PERIOD,APOGEE,PERIGEE,DECAYED
52283.0,STARLINK-3789,PAYLOAD,2024-02-28 15:07:13,15.08835253,0.0001556,53.2179,191.377,91.0657,269.0514,0.00013029,1.786e-05,0.0,0 STARLINK-3789,1 52283U 22041Y   24059.63001210  .00001786  00000-0  13029-3 0  9992,2 52283  53.2179 191.3770 0001556  91.0657 269.0514 15.08835253102642,6917.895,95.438,540.836,538.683,0.0
52283.0,STARLINK-3789,PAYLOAD,2024-02-28 18:17:58,15.0884359,0.0001542,53.218,190.7813,110.9487,249.167,0.00011513,1.545e-05,0.0,0 STARLINK-3789,1 52283U 22041Y   24059.76248633  .00001545  00000-0  11513-3 0  9997,2 52283  53.2180 190.7813 0001542 110.9487 249.1670 15.08843590103884,6917.869,95.437,540.801,538.668,0.0
52283.0,STARLINK-3789,PAYLOAD,2024-02-29 11:47:13,15.08841514,0.0001359,53.2166,187.5132,91.9146,268.2002,-1.0968e-05,-4.62e-06,0.0,0 STARLINK-3789,1 52283U 22041Y   24060.49113328 -.00000462  00000-0 -10968-4 0  9994,2 52283  53.2166 187.5132 0001359  91.9146 268.2002 15.08841514103999,6917.876,95.437,540.681,538.801,0.0
52283.0,STARLINK-3789,PAYLOAD,2024-02-29 14:58:00,15.08843565,0.0001293,53.2168,186.9181,89.3866,270.7274,2.3159e-06,-2.51e-06,0.0,0 STARLINK-3789,1 52283U 22041Y   24060.62361161 -.00000251  00000-0  23159-5 0  9991,2 52283  53.2168 186.9181 0001293  89.3866 270.7274 15.08843565102799,6917.869,95.437,540.629,538.84,0.0
52283.0,STARLINK-3789,PAYLOAD,2024-03-01 14:48:46,15.0884954,0.0001363,53.217,182.4579,85.1774,274.9373,0.00011431,1.532e-05,0.0,0 STARLINK-3789,1 52283U 22041Y   24061.61720503  .00001532  00000-0  11431-3 0  9990,2 52283  53.2170 182.4579 0001363  85.1774 274.9373 15.08849540102946,6917.851,95.437,540.659,538.773,0.0
52283.0,STARLINK-3789,PAYLOAD,2024-03-02 11:28:47,15.08842613,0.0001362,53.2168,178.5924,85.996,274.1188,8.6201e-05,1.084e-05,0.0,0 STARLINK-3789,1 52283U 22041Y   24062.47832917  .00001084  00000-0  86201-4 0  9998,2 52283  53.2168 178.5924 0001362  85.9960 274.1188 15.08842613104297,6917.872,95.437,540.68,538.795,0.0
52283.0,STARLINK-3789,PAYLOAD,2024-03-02 14:39:33,15.08845402,0.0001434,53.2173,177.9999,85.5525,274.5631,0.00012465,1.697e-05,0.0,0 STARLINK-3789,1 52283U 22041Y   24062.61080632  .00001697  00000-0  12465-3 0  9993,2 52283  53.2173 177.9999 0001434  85.5525 274.5631 15.08845402103094,6917.864,95.437,540.721,538.737,0.0
52283.0,STARLINK-3789,PAYLOAD,2024-03-03 12:54:57,15.08841206,0.0001422,53.2173,173.8367,105.1679,254.9471,-2.0329e-05,-6.11e-06,0.0,0 STARLINK-3789,1 52283U 22041Y   24063.53817072 -.00000611  00000-0 -20329-4 0  9997,2 52283  53.2173 173.8367 0001422 105.1679 254.9471 15.08841206103232,6917.877,95.437,540.725,538.758,0.0
52283.0,STARLINK-3789,PAYLOAD,2024-03-04 11:10:20,15.08860793,0.0001383,53.2176,169.6732,112.6225,247.4914,4.1719e-05,3.76e-06,0.0,0 STARLINK-3789,1 52283U 22041Y   24064.46551338  .00000376  00000-0  41719-4 0  9992,2 52283  53.2176 169.6732 0001383 112.6225 247.4914 15.08860793104591,6917.817,95.436,540.639,538.725,0.0
52283.0,STARLINK-3789,PAYLOAD,2024-03-04 14:21:06,15.08856202,0.000169,53.2177,169.0782,106.0852,254.0327,8.9286e-05,1.134e-05,0.0,0 STARLINK-3789,1 52283U 22041Y   24064.59799333  .00001134  00000-0  89286-4 0  9999,2 52283  53.2177 169.0782 0001690 106.0852 254.0327 15.08856202103394,6917.831,95.437,540.865,538.527,0.0
52283.0,STARLINK-3789,PAYLOAD,2024-03-05 14:11:55,15.08824134,0.0001231,53.2155,164.616,105.335,254.7779,-0.00013151,-2.379e-05,0.0,0 STARLINK-3789,1 52283U 22041Y   24065.59161662 -.00002379  00000-0 -13151-3 0  9999,2 52283  53.2155 164.6160 0001231 105.3350 254.7779 15.08824134103541,6917.929,95.439,540.645,538.942,0.0
52283.0,STARLINK-3789,PAYLOAD,2024-03-06 10:51:56,15.08830205,0.000129,53.2163,160.752,100.5765,259.5372,1.7283e-05,-1.3e-07,0.0,0 STARLINK-3789,1 52283U 22041Y   24066.45274115 -.00000013  00000-0  17283-4 0  9996,2 52283  53.2163 160.7520 0001290 100.5765 259.5372 15.08830205104896,6917.91,95.438,540.668,538.883,0.0
52283.0,STARLINK-3789,PAYLOAD,2024-03-06 12:27:19,15.08835904,0.0001414,53.2158,160.4549,87.0549,273.0605,0.00017001,2.419e-05,0.0,0 STARLINK-3789,1 52283U 22041Y   24066.51898073  .00002419  00000-0  17001-3 0  9996,2 52283  53.2158 160.4549 0001414  87.0549 273.0605 15.08835904103682,6917.893,95.438,540.736,538.78,0.0
52283.0,STARLINK-3789,PAYLOAD,2024-03-06 23:35:02,15.08841263,0.0001355,53.2157,158.3728,93.7627,266.352,0.00040867,6.222e-05,0.0,0 STARLINK-3789,1 52283U 22041Y   24066.98266233  .00006222  00000-0  40867-3 0  9996,2 52283  53.2157 158.3728 0001355  93.7627 266.3520 15.08841263104970,6917.877,95.437,540.679,538.804,0.0
52283.0,STARLINK-3789,PAYLOAD,2024-03-07 12:18:07,15.0885377,0.0001481,53.2154,155.993,96.3756,263.7405,0.0005748,8.875e-05,0.0,0 STARLINK-3789,1 52283U 22041Y   24067.51258122  .00008875  00000-0  57480-3 0  9999,2 52283  53.2154 155.9930 0001481  96.3756 263.7405 15.08853770103830,6917.838,95.437,540.728,538.679,0.0
52283.0,STARLINK-3789,PAYLOAD,2024-03-08 12:08:53,15.08859107,0.000149,53.2168,151.5305,106.636,253.4796,0.00040996,6.246e-05,0.0,0 STARLINK-3789,1 52283U 22041Y   24068.50617321  .00006246  00000-0  40996-3 0  9993,2 52283  53.2168 151.5305 0001490 106.6360 253.4796 15.08859107105201,6917.822,95.436,540.718,538.656,0.0
52283.0,STARLINK-3789,PAYLOAD,2024-03-09 11:59:40,15.08843851,0.0001385,53.2171,147.0752,87.5881,272.5269,7.7447e-05,9.45e-06,0.0,0 STARLINK-3789,1 52283U 22041Y   24069.49977654  .00000945  00000-0  77447-4 0  9992,2 52283  53.2171 147.0752 0001385  87.5881 272.5269 15.08843851105351,6917.869,95.437,540.692,538.775,0.0
52283.0,STARLINK-3789,PAYLOAD,2024-03-09 21:31:59,15.08837715,0.0001344,53.2159,145.2889,84.591,275.5235,-3.6801e-05,-8.74e-06,0.0,0 STARLINK-3789,1 52283U 22041Y   24069.89721856 -.00000874  00000-0 -36801-4 0  9999,2 52283  53.2159 145.2889 0001344  84.5910 275.5235 15.08837715104192,6917.887,95.438,540.682,538.823,0.0
52283.0,STARLINK-3789,PAYLOAD,2024-03-10 11:50:28,15.08838198,0.0001432,53.2173,142.6146,89.8584,270.2572,2.2313e-05,6.7e-07,0.0,0 STARLINK-3789,1 52283U 22041Y   24070.49338143  .00000067  00000-0  22313-4 0  9995,2 52283  53.2173 142.6146 0001432  89.8584 270.2572 15.08838198104280,6917.886,95.438,540.742,538.76,0.0
52283.0,STARLINK-3789,PAYLOAD,2024-03-10 21:22:47,15.08838323,0.0001518,53.2168,140.8291,88.6728,271.4438,2.2646e-05,7.2e-07,0.0,0 STARLINK-3789,1 52283U 22041Y   24070.89082195  .00000072  00000-0  22646-4 0  9997,2 52283  53.2168 140.8291 0001518  88.6728 271.4438 15.08838323104348,6917.886,95.438,540.801,538.7,0.0
52283.0,STARLINK-3789,PAYLOAD,2024-03-11 11:41:15,15.0882329,0.0001563,53.2164,138.1528,91.6928,268.4243,-0.00016356,-2.889e-05,0.0,0 STARLINK-3789,1 52283U 22041Y   24071.48698623 -.00002889  00000-0 -16356-3 0  9992,2 52283  53.2164 138.1528 0001563  91.6928 268.4243 15.08823290105655,6917.931,95.439,540.878,538.715,0.0
52283.0,STARLINK-3789,PAYLOAD,2024-03-12 11:32:02,15.08840549,0.0001512,53.2155,133.687,84.0109,276.1056,8.491e-05,1.064e-05,0.0,0 STARLINK-3789,1 52283U 22041Y   24072.48058140  .00001064  00000-0  84910-4 0  9991,2 52283  53.2155 133.6870 0001512  84.0109 276.1056 15.08840549105807,6917.879,95.438,540.79,538.698,0.0
52283.0,STARLINK-3789,PAYLOAD,2024-03-12 21:04:20,15.08842081,0.0001624,53.2156,131.9043,87.9689,272.1489,0.00010816,1.434e-05,0.0,0 STARLINK-3789,1 52283U 22041Y   24072.87802045  .00001434  00000-0  10816-3 0  9999,2 52283  53.2156 131.9043 0001624  87.9689 272.1489 15.08842081104640,6917.874,95.437,540.862,538.616,0.0
52283.0,STARLINK-3789,PAYLOAD,2024-03-13 11:22:49,15.08842417,0.0001577,53.2148,129.2315,103.3512,256.7656,0.00036943,5.597e-05,0.0,0 STARLINK-3789,1 52283U 22041Y   24073.47418216  .00005597  00000-0  36943-3 0  9992,2 52283  53.2148 129.2315 0001577 103.3512 256.7656 15.08842417104735,6917.873,95.437,540.829,538.647,0.0
52283.0,STARLINK-3789,PAYLOAD,2024-03-13 20:55:08,15.08844439,0.000159,53.2158,127.4424,90.4842,269.6332,0.00029168,4.358e-05,0.0,0 STARLINK-3789,1 52283U 22041Y   24073.87162220  .00004358  00000-0  29168-3 0  9992,2 52283  53.2158 127.4424 0001590  90.4842 269.6332 15.08844439106017,6917.867,95.437,540.832,538.632,0.0
52283.0,STARLINK-3789,PAYLOAD,2024-03-14 03:16:40,15.08841719,0.0001669,53.2155,126.2552,91.5212,268.5972,0.00014476,2.017e-05,0.0,0 STARLINK-3789,1 52283U 22041Y   24074.13658322  .00002017  00000-0  14476-3 0  9991,2 52283  53.2155 126.2552 0001669  91.5212 268.5972 15.08841719104837,6917.875,95.437,540.895,538.586,0.0
52283.0,STARLINK-3789,PAYLOAD,2024-03-14 09:38:13,15.08845611,0.000164,53.2151,125.0659,90.5131,269.6049,0.00020849,3.032e-05,0.0,0 STARLINK-3789,1 52283U 22041Y   24074.40154179  .00003032  00000-0  20849-3 0  9991,2 52283  53.2151 125.0659 0001640  90.5131 269.6049 15.08845611104872,6917.863,95.437,540.863,538.594,0.0
52283.0,STARLINK-3789,PAYLOAD,2024-03-15 03:07:27,15.0884343,0.000162,53.2141,121.7966,87.4117,272.706,0.00020105,2.913e-05,0.0,0 STARLINK-3789,1 52283U 22041Y   24075.13018240  .00002913  00000-0  20105-3 0  9992,2 52283  53.2141 121.7966 0001620  87.4117 272.7060 15.08843430106206,6917.87,95.437,540.856,538.614,0.0
52283.0,STARLINK-3789,PAYLOAD,2024-03-15 12:39:46,15.08846728,0.0001568,53.2142,120.0108,86.9869,273.1302,0.00018687,2.688e-05,0.0,0 STARLINK-3789,1 52283U 22041Y   24075.52762060  .00002688  00000-0  18687-3 0  9992,2 52283  53.2142 120.0108 0001568  86.9869 273.1302 15.08846728105044,6917.86,95.437,540.81,538.64,0.0
52283.0,STARLINK-3789,PAYLOAD,2024-03-16 12:30:34,15.0883904,0.0001739,53.2168,115.5485,103.9952,256.1234,-1.7367e-05,-5.64e-06,0.0,0 STARLINK-3789,1 52283U 22041Y   24076.52122742 -.00000564  00000-0 -17367-4 0  9998,2 52283  53.2168 115.5485 0001739 103.9952 256.1234 15.08839040106418,6917.883,95.438,540.951,538.545,0.0
